IRIDIUM 7               
1 24793U 97020B   24281.46703235  .00001806  00000+0  62183-3 0  9997
2 24793  86.3897 282.7878 0002052  94.9542 265.1889 14.35474069435635
IRIDIUM 5               
1 24795U 97020D   24281.53669200  .00020341  00000+0  18512-2 0  9991
2 24795  86.3971 199.7702 0115675 324.0895  35.2594 14.90039727447784
IRIDIUM 4               
1 24796U 97020E   24281.74979839  .00001684  00000+0  56885-3 0  9992
2 24796  86.3891 279.7086 0002153  88.8421 271.3022 14.36399396436256
IRIDIUM 914             
1 24836U 97030A   24281.47744213  .00002227  00000+0  69704-3 0  9992
2 24836  86.3878 289.1900 0002160  45.6204 314.5172 14.40304233570744
IRIDIUM 16              
1 24841U 97030F   24281.82651764  .00001764  00000+0  57472-3 0  9999
2 24841  86.4005 311.3311 0003323 132.9885 227.1592 14.38197880430985
IRIDIUM 911             
1 24842U 97030G   24281.83870960  .00002616  00000+0  71465-3 0  9997
2 24842  86.4429 310.3499 0013034 211.0532 148.9902 14.46932467438564
IRIDIUM 17              
1 24870U 97034B   24281.44874622  .00002149  00000+0  71454-3 0  9997
2 24870  86.3994 341.0588 0003654 105.7819 254.3782 14.37310173427273
IRIDIUM 920             
1 24871U 97034C   24281.37676860  .00001995  00000+0  61455-3 0  9992
2 24871  86.3969 320.9060 0011229 185.2261 174.8823 14.41004423430165
